{
    "links": {
        "self": "http://www.neowsapp.com/rest/v1/neo/3568374?api_key=iIulBulltgU6a56xZRHN4H3l9WmuAYTsLGpBGhQ2"
    },
    "id": "3568374",
    "neo_reference_id": "3568374",
    "name": "(2011 MY2)",
    "designation": "2011 MY2",
    "nasa_jpl_url": "http://ssd.jpl.nasa.gov/sbdb.cgi?sstr=3568374",
    "absolute_magnitude_h": 22.7,
    "estimated_diameter": {
        "kilometers": {
            "estimated_diameter_min": 0.0766575574,
            "estimated_diameter_max": 0.1714115092
        },
        "meters": {
            "estimated_diameter_min": 76.6575573531,
            "estimated_diameter_max": 171.4115092306
        },
        "miles": {
            "estimated_diameter_min": 0.0476327831,
            "estimated_diameter_max": 0.1065101409
        },
        "feet": {
            "estimated_diameter_min": 251.5011804664,
            "estimated_diameter_max": 562.3737359442
        }
    },
    "is_potentially_hazardous_asteroid": false,
    "close_approach_data": [
        {
            "close_approach_date": "2011-06-29",
            "close_approach_date_full": "2011-Jun-29 14:37",
            "epoch_date_close_approach": 1309358220000,
            "relative_velocity": {
                "kilometers_per_second": "6.4150198085",
                "kilometers_per_hour": "23094.0713105609",
                "miles_per_hour": "14349.7578096093"
            },
            "miss_distance": {
                "astronomical": "0.1868764955",
                "lunar": "72.6949567495",
                "kilometers": "27956325.679864585",
                "miles": "17371255.261657873"
            },
            "orbiting_body": "Earth"
        }
    ],
    "orbital_data": {
        "orbit_id": "13",
        "orbit_determination_date": "2017-04-06 08:53:13",
        "first_observation_date": "2011-06-27",
        "last_observation_date": "2011-07-19",
        "data_arc_in_days": 22,
        "observations_used": 50,
        "orbit_uncertainty": "7",
        "minimum_orbit_intersection": ".164191",
        "jupiter_tisserand_invariant": "3.543",
        "epoch_osculation": "2459000.5",
        "eccentricity": ".4536379426579131",
        "semi_major_axis": "2.158361524500387",
        "inclination": "9.606282282091671",
        "ascending_node_longitude": "270.5730842781811",
        "orbital_period": "1158.20307249336",
        "perihelion_distance": "1.179246843014034",
        "perihelion_argument": "8.192552011054813",
        "aphelion_distance": "3.137476205986739",
        "perihelion_time": "2459224.705983774941",
        "mean_anomaly": "290.3108789158894",
        "mean_motion": ".3108263210051742",
        "equinox": "J2000",
        "orbit_class": {
            "orbit_class_type": "AMO",
            "orbit_class_description": "Near-Earth asteroid orbits similar to that of 1221 Amor",
            "orbit_class_range": "1.017 AU < q (perihelion) < 1.3 AU"
        }
    },
    "is_sentry_object": false
}